     2.100          NAVIGATION                              RINEX VERSION / TYPE
fic2rin                                 07/18/2010 00:10:53 PGM / RUN BY / DATE
                                                            END OF HEADER
17 10  7 17  2  0  0.0  .162214040756D-03  .193267624127D-11  .000000000000D+00
     .780000000000D+02 -.448437500000D+02  .468948104999D-08 -.180387610673D+01
    -.229105353355D-05  .549447932281D-02  .101700425148D-04  .515363322830D+04
     .525600000000D+06  .126659870148D-06 -.253437570763D+01  .596046447754D-07
     .960539808647D+00  .182031250000D+03 -.249914365612D+01 -.800854787388D-08
    -.164292557730D-09  .100000000000D+01  .159200000000D+04  .000000000000D+00
     .240000000000D+01  .000000000000D+00 -.102445483208D-07  .780000000000D+02
     .518406000000D+06  .400000000000D+01
18 10  7 17  2  0  0.0  .812630169094D-04  .238742359215D-11  .000000000000D+00
     .680000000000D+02  .334062500000D+02  .551951562427D-08 -.376886117837D+00
     .173971056938D-05  .116795104695D-01  .383518636227D-05  .515370329666D+04
     .525600000000D+06 -.353902578354D-07 -.442007023755D+00  .171363353729D-06
     .936733704707D+00  .291812500000D+03 -.231962153821D+01 -.894715839935D-08
    -.197151069276D-09  .100000000000D+01  .159200000000D+04  .000000000000D+00
     .240000000000D+01  .000000000000D+00 -.107102096081D-07  .680000000000D+02
     .518406000000D+06  .400000000000D+01
19 10  7 17  2  0  0.0 -.502364709973D-04 -.295585778076D-11  .000000000000D+00
     .810000000000D+02 -.417187500000D+02  .465555106525D-08 -.252006908857D+01
    -.217184424400D-05  .667174975388D-02  .105313956738D-04  .515376558685D+04
     .525600000000D+06 -.204890966415D-06 -.247949296952D+01 -.242143869400D-07
     .958118001895D+00  .177812500000D+03 -.121075373424D+00 -.795568852922D-08
    -.186079179516D-09  .100000000000D+01  .159200000000D+04  .000000000000D+00
     .240000000000D+01  .000000000000D+00 -.149011611938D-07  .810000000000D+02
     .518406000000D+06  .400000000000D+01
20 10  7 17  2  0  0.0  .532809644938D-04 -.454747350886D-12  .000000000000D+00
     .600000000000D+02  .325000000000D+02  .539915346784D-08 -.145870035478D+00
     .172108411789D-05  .413600658067D-02  .384636223316D-05  .515357201767D+04
     .525600000000D+06 -.372529029846D-08 -.495951533984D+00  .465661287308D-07
     .936614874798D+00  .290656250000D+03  .131752151869D+01 -.875679332702D-08
    -.178221709364D-09  .100000000000D+01  .159200000000D+04  .000000000000D+00
     .240000000000D+01  .000000000000D+00 -.791624188423D-08  .600000000000D+02
     .518406000000D+06  .400000000000D+01
21 10  7 17  2  0  0.0 -.744536519051D-04 -.261479726760D-11  .000000000000D+00
     .680000000000D+02  .657187500000D+02  .533165065608D-08  .740591174081D+00
     .380724668503D-05  .167392977746D-01  .100210309029D-04  .515365903854D+04
     .525600000000D+06 -.968575477600D-07 -.149873239997D+01  .176951289177D-06
     .932060349998D+00  .171375000000D+03 -.246019911790D+01 -.862750222724D-08
    -.650027076237D-10  .100000000000D+01  .159200000000D+04  .000000000000D+00
     .240000000000D+01  .000000000000D+00 -.121071934700D-07  .680000000000D+02
     .518406000000D+06  .400000000000D+01
22 10  7 17  2  0  0.0  .167360994965D-03 -.102318153949D-11  .000000000000D+00
     .790000000000D+02  .330000000000D+02  .541451125041D-08 -.129389553654D+01
     .156275928020D-05  .548308715224D-02  .401772558689D-05  .515371273994D+04
     .525600000000D+06  .596046447754D-07 -.437203023147D+00  .186264514923D-06
     .934421088698D+00  .288281250000D+03 -.194334540747D+01 -.868750472659D-08
    -.237509893240D-09  .100000000000D+01  .159200000000D+04  .000000000000D+00
     .240000000000D+01  .000000000000D+00 -.176951289177D-07  .790000000000D+02
     .518406000000D+06  .400000000000D+01
23 10  7 17  2  0  0.0  .362676102668D-03 -.159161572810D-11  .000000000000D+00
     .880000000000D+02 -.365625000000D+02  .415195866003D-08 -.301696803902D+01
    -.193528831005D-05  .689368590247D-02  .859051942825D-05  .515367128754D+04
     .525600000000D+06 -.987201929092D-07  .591975071669D+00  .409781932831D-07
     .967767874754D+00  .217250000000D+03  .304574446273D+01 -.789568602987D-08
    -.306084178206D-09  .100000000000D+01  .159200000000D+04  .000000000000D+00
     .240000000000D+01  .000000000000D+00 -.200234353542D-07  .880000000000D+02
     .518406000000D+06  .400000000000D+01
24 10  7 17  2  0  0.0  .305010937154D-03  .318323145621D-11  .000000000000D+00
     .181000000000D+03  .635937500000D+02  .480341436720D-08 -.222960410725D+01
     .321678817272D-05  .569155742414D-02  .979565083981D-05  .515483095551D+04
     .525600000000D+06 -.180676579475D-06 -.145932457900D+01 -.130385160446D-07
     .948661411236D+00  .182062500000D+03 -.453770783980D+00 -.811605235187D-08
     .935753263594D-10  .100000000000D+01  .159200000000D+04  .000000000000D+00
     .340000000000D+01  .000000000000D+00 -.139698386192D-08  .181000000000D+03
     .518406000000D+06  .400000000000D+01
26 10  7 17  2  0  0.0 -.825948081911D-04 -.613908923697D-11  .000000000000D+00
     .260000000000D+02 -.562500000000D+02  .355729103259D-08  .276380015706D+01
    -.290200114250D-05  .193459395086D-01  .900775194168D-05  .515238388443D+04
     .525600000000D+06  .178813934326D-06  .650269479568D+00 -.139698386192D-06
     .990435619230D+00  .217343750000D+03  .110506286377D+01 -.743780981463D-08
    -.328227957726D-09  .100000000000D+01  .159200000000D+04  .000000000000D+00
     .240000000000D+01  .000000000000D+00 -.605359673500D-08  .260000000000D+02
     .518406000000D+06  .400000000000D+01
27 10  7 17  2  0  0.0  .170836690813D-03  .352429196937D-11  .000000000000D+00
     .780000000000D+02  .231875000000D+02  .378694345568D-08 -.222843960691D+01
     .142864882946D-05  .215292876819D-01  .964105129242D-05  .515361124229D+04
     .525600000000D+06  .298023223877D-06  .157844351454D+01  .249594449997D-06
     .978627877836D+00  .193187500000D+03 -.139713408086D+01 -.750388399546D-08
     .483591572101D-09  .100000000000D+01  .159200000000D+04  .000000000000D+00
     .340000000000D+01  .000000000000D+00 -.419095158577D-08  .780000000000D+02
     .518406000000D+06  .400000000000D+01
28 10  7 17  2  0  0.0 -.103423371911D-04  .125055521494D-11  .000000000000D+00
     .690000000000D+02 -.275312500000D+02  .472769692755D-08 -.116910543668D+01
    -.985339283943D-06  .160235189833D-01  .501796603203D-05  .515367039871D+04
     .525600000000D+06  .931322574615D-07  .271379585137D+01  .361353158951D-06
     .971030329825D+00  .287093750000D+03 -.195104024978D+01 -.832034657583D-08
     .176435920693D-09  .100000000000D+01  .159200000000D+04  .000000000000D+00
     .240000000000D+01  .000000000000D+00 -.107102096081D-07  .690000000000D+02
     .518406000000D+06  .400000000000D+01
29 10  7 17  2  0  0.0  .135079491884D-03  .284217094304D-11  .000000000000D+00
     .720000000000D+02 -.554687500000D+02  .475948396590D-08  .888443776621D+00
    -.283494591713D-05  .292241538409D-02  .990927219391D-05  .515370717621D+04
     .525600000000D+06 -.204890966415D-07 -.252609729999D+01 -.838190317154D-07
     .960884102028D+00  .191718750000D+03 -.126349648213D+01 -.811390940547D-08
    -.242867259253D-09  .100000000000D+01  .159200000000D+04  .000000000000D+00
     .340000000000D+01  .000000000000D+00 -.884756445885D-08  .720000000000D+02
     .518406000000D+06  .400000000000D+01
30 10  7 17  2  0  0.0  .261195469648D-03  .329691829393D-11  .000000000000D+00
     .107000000000D+03 -.140000000000D+02  .510985570314D-08 -.749818854634D+00
    -.612810254097D-06  .124611883657D-01  .545755028725D-05  .515370506668D+04
     .525600000000D+06 -.169500708580D-06  .263429720370D+01  .894069671631D-07
     .956869727545D+00  .279750000000D+03  .149296797462D+01 -.861714465295D-08
     .298583865788D-09  .100000000000D+01  .159200000000D+04  .000000000000D+00
     .340000000000D+01  .000000000000D+00 -.791624188423D-08  .107000000000D+03
     .518406000000D+06  .400000000000D+01
31 10  7 17  2  0  0.0 -.240057706833D-04  .261479726760D-11  .000000000000D+00
     .720000000000D+02  .114062500000D+02  .390766276984D-08  .162739207175D+01
     .694766640663D-06  .733891152777D-02  .894442200661D-05  .515372658539D+04
     .525600000000D+06  .208616256714D-06  .163423066079D+01 -.465661287308D-07
     .977136680088D+00  .214062500000D+03 -.105063095166D+01 -.775746598674D-08
     .402516766439D-09  .100000000000D+01  .159200000000D+04  .000000000000D+00
     .240000000000D+01  .000000000000D+00 -.130385160446D-07  .720000000000D+02
     .518406000000D+06  .400000000000D+01
32 10  7 17  2  0  0.0 -.396133400500D-04 -.875388650456D-11  .000000000000D+00
     .430000000000D+02  .248437500000D+02  .474984070707D-08  .241273941192D+01
     .132434070110D-05  .126374633983D-01  .401400029659D-05  .515368804169D+04
     .525600000000D+06  .206753611565D-06 -.377685889299D+00  .949949026108D-07
     .958615787567D+00  .297281250000D+03 -.962858826386D+00 -.822177104119D-08
    -.335013954676D-09  .100000000000D+01  .159200000000D+04  .000000000000D+00
     .240000000000D+01  .000000000000D+00 -.325962901115D-08  .430000000000D+02
     .518406000000D+06  .400000000000D+01
 6 10  7 17  1 59 44.0  .570097006857D-03 -.142108547152D-10  .000000000000D+00
     .500000000000D+01 -.613750000000D+02  .531414992710D-08 -.894766096017D+00
    -.334903597832D-05  .628959247842D-02  .948645174503D-05  .515365797043D+04
     .525584000000D+06 -.949949026108D-07 -.260914668390D+01 -.838190317154D-07
     .934950476326D+00  .185468750000D+03 -.101126262070D+01 -.848606776450D-08
    -.141434462742D-09  .100000000000D+01  .159200000000D+04  .000000000000D+00
     .240000000000D+01  .000000000000D+00 -.512227416039D-08  .500000000000D+01
     .518946000000D+06  .400000000000D+01
